<?xml version="1.0" encoding="utf-8"?><gpx version="1.1" creator="Aspose.Gis - www.aspose.com"><rte><name>Caminho Picada 48 Alta</name><extensions><tessellate>true</tessellate></extensions><rtept lat="-29.58263" lon="-51.15774"><ele>0</ele></rtept><rtept lat="-29.58267" lon="-51.15752"><ele>0</ele></rtept><rtept lat="-29.58277" lon="-51.15697"><ele>0</ele></rtept><rtept lat="-29.58278" lon="-51.15694"><ele>0</ele></rtept><rtept lat="-29.58282000000001" lon="-51.15671"><ele>0</ele></rtept><rtept lat="-29.5829" lon="-51.15620000000001"><ele>0</ele></rtept><rtept lat="-29.58295" lon="-51.15584"><ele>0</ele></rtept><rtept lat="-29.58296" lon="-51.15558"><ele>0</ele></rtept><rtept lat="-29.58295" lon="-51.15536999999999"><ele>0</ele></rtept><rtept lat="-29.58294" lon="-51.15524"><ele>0</ele></rtept><rtept lat="-29.58294" lon="-51.15513"><ele>0</ele></rtept><rtept lat="-29.58293" lon="-51.15500999999999"><ele>0</ele></rtept><rtept lat="-29.58293" lon="-51.15493"><ele>0</ele></rtept><rtept lat="-29.58294" lon="-51.15481"><ele>0</ele></rtept><rtept lat="-29.58294" lon="-51.1548"><ele>0</ele></rtept><rtept lat="-29.58295" lon="-51.15462"><ele>0</ele></rtept><rtept lat="-29.58299" lon="-51.1544"><ele>0</ele></rtept><rtept lat="-29.583" lon="-51.15438"><ele>0</ele></rtept><rtept lat="-29.58308" lon="-51.15421"><ele>0</ele></rtept><rtept lat="-29.58308" lon="-51.1542"><ele>0</ele></rtept><rtept lat="-29.58312" lon="-51.15409"><ele>0</ele></rtept><rtept lat="-29.58313" lon="-51.15397999999999"><ele>0</ele></rtept><rtept lat="-29.58313" lon="-51.15367000000001"><ele>0</ele></rtept><rtept lat="-29.58312" lon="-51.15361"><ele>0</ele></rtept><rtept lat="-29.58312" lon="-51.1536"><ele>0</ele></rtept><rtept lat="-29.5831" lon="-51.15350000000001"><ele>0</ele></rtept><rtept lat="-29.58309" lon="-51.15339000000001"><ele>0</ele></rtept><rtept lat="-29.58306" lon="-51.15320000000001"><ele>0</ele></rtept><rtept lat="-29.58305" lon="-51.15319"><ele>0</ele></rtept><rtept lat="-29.58302" lon="-51.153"><ele>0</ele></rtept><rtept lat="-29.58302" lon="-51.15299"><ele>0</ele></rtept><rtept lat="-29.58301" lon="-51.15295"><ele>0</ele></rtept><rtept lat="-29.58297" lon="-51.15279"><ele>0</ele></rtept><rtept lat="-29.58292" lon="-51.15259"><ele>0</ele></rtept><rtept lat="-29.58288" lon="-51.15244"><ele>0</ele></rtept><rtept lat="-29.58288" lon="-51.1524"><ele>0</ele></rtept><rtept lat="-29.58284" lon="-51.15224"><ele>0</ele></rtept><rtept lat="-29.58283" lon="-51.15219999999999"><ele>0</ele></rtept><rtept lat="-29.58283" lon="-51.15219"><ele>0</ele></rtept><rtept lat="-29.5828" lon="-51.15205"><ele>0</ele></rtept><rtept lat="-29.58279" lon="-51.15198"><ele>0</ele></rtept><rtept lat="-29.58279" lon="-51.15192"><ele>0</ele></rtept><rtept lat="-29.58278" lon="-51.15178"><ele>0</ele></rtept><rtept lat="-29.58277" lon="-51.15169999999999"><ele>0</ele></rtept><rtept lat="-29.58276" lon="-51.15157"><ele>0</ele></rtept><rtept lat="-29.58276" lon="-51.15149"><ele>0</ele></rtept><rtept lat="-29.58273" lon="-51.15133"><ele>0</ele></rtept><rtept lat="-29.5827" lon="-51.15111000000001"><ele>0</ele></rtept><rtept lat="-29.58267" lon="-51.15097999999999"><ele>0</ele></rtept><rtept lat="-29.58266" lon="-51.15096"><ele>0</ele></rtept><rtept lat="-29.58261" lon="-51.15079"><ele>0</ele></rtept><rtept lat="-29.58261" lon="-51.15078"><ele>0</ele></rtept><rtept lat="-29.58261" lon="-51.15076"><ele>0</ele></rtept><rtept lat="-29.58254" lon="-51.15057"><ele>0</ele></rtept><rtept lat="-29.58251" lon="-51.15044999999999"><ele>0</ele></rtept><rtept lat="-29.58238" lon="-51.15007"><ele>0</ele></rtept><rtept lat="-29.58236" lon="-51.14998"><ele>0</ele></rtept><rtept lat="-29.58231" lon="-51.14981"><ele>0</ele></rtept><rtept lat="-29.58231" lon="-51.14979"><ele>0</ele></rtept><rtept lat="-29.58224" lon="-51.14955"><ele>0</ele></rtept><rtept lat="-29.58213" lon="-51.14916"><ele>0</ele></rtept><rtept lat="-29.58211" lon="-51.14904"><ele>0</ele></rtept><rtept lat="-29.58209" lon="-51.14882"><ele>0</ele></rtept><rtept lat="-29.58205999999999" lon="-51.1484"><ele>0</ele></rtept><rtept lat="-29.58205999999999" lon="-51.14837"><ele>0</ele></rtept><rtept lat="-29.58205" lon="-51.14824"><ele>0</ele></rtept><rtept lat="-29.58205" lon="-51.14816"><ele>0</ele></rtept><rtept lat="-29.58205" lon="-51.14791999999999"><ele>0</ele></rtept><rtept lat="-29.58205" lon="-51.14785"><ele>0</ele></rtept><rtept lat="-29.58207" lon="-51.14779"><ele>0</ele></rtept><rtept lat="-29.5821" lon="-51.14767000000001"><ele>0</ele></rtept><rtept lat="-29.58212" lon="-51.14758"><ele>0</ele></rtept><rtept lat="-29.58216" lon="-51.14738"><ele>0</ele></rtept><rtept lat="-29.58226" lon="-51.14694999999999"><ele>0</ele></rtept><rtept lat="-29.58235" lon="-51.14658"><ele>0</ele></rtept><rtept lat="-29.58239" lon="-51.14646"><ele>0</ele></rtept><rtept lat="-29.58241" lon="-51.14638"><ele>0</ele></rtept><rtept lat="-29.58243" lon="-51.1463"><ele>0</ele></rtept><rtept lat="-29.58247" lon="-51.1462"><ele>0</ele></rtept><rtept lat="-29.58251" lon="-51.14605999999999"><ele>0</ele></rtept><rtept lat="-29.58253" lon="-51.14599"><ele>0</ele></rtept><rtept lat="-29.58253" lon="-51.14596"><ele>0</ele></rtept><rtept lat="-29.58254" lon="-51.1459"><ele>0</ele></rtept><rtept lat="-29.58256" lon="-51.14579"><ele>0</ele></rtept><rtept lat="-29.58259" lon="-51.14567"><ele>0</ele></rtept><rtept lat="-29.58259" lon="-51.14559"><ele>0</ele></rtept><rtept lat="-29.5826" lon="-51.14551"><ele>0</ele></rtept><rtept lat="-29.5826" lon="-51.14538"><ele>0</ele></rtept><rtept lat="-29.58261" lon="-51.14535"><ele>0</ele></rtept><rtept lat="-29.58262" lon="-51.14527"><ele>0</ele></rtept><rtept lat="-29.58262" lon="-51.14521"><ele>0</ele></rtept><rtept lat="-29.58264" lon="-51.14515"><ele>0</ele></rtept><rtept lat="-29.58264" lon="-51.14514"><ele>0</ele></rtept><rtept lat="-29.58265" lon="-51.14509"><ele>0</ele></rtept><rtept lat="-29.58268" lon="-51.14504"><ele>0</ele></rtept><rtept lat="-29.58271" lon="-51.145"><ele>0</ele></rtept><rtept lat="-29.58277" lon="-51.14493"><ele>0</ele></rtept><rtept lat="-29.58285" lon="-51.14480999999999"><ele>0</ele></rtept><rtept lat="-29.58296" lon="-51.14468"><ele>0</ele></rtept><rtept lat="-29.58311" lon="-51.14451"><ele>0</ele></rtept><rtept lat="-29.58312" lon="-51.14449999999999"><ele>0</ele></rtept><rtept lat="-29.58322" lon="-51.14438999999999"><ele>0</ele></rtept><rtept lat="-29.58324" lon="-51.14437"><ele>0</ele></rtept><rtept lat="-29.5833" lon="-51.1443"><ele>0</ele></rtept><rtept lat="-29.58335" lon="-51.14425000000001"><ele>0</ele></rtept><rtept lat="-29.58339" lon="-51.14419000000001"><ele>0</ele></rtept><rtept lat="-29.58342" lon="-51.14413999999999"><ele>0</ele></rtept><rtept lat="-29.58345" lon="-51.14409"><ele>0</ele></rtept><rtept lat="-29.58347" lon="-51.14402999999999"><ele>0</ele></rtept><rtept lat="-29.5835" lon="-51.14392"><ele>0</ele></rtept><rtept lat="-29.58351" lon="-51.1439"><ele>0</ele></rtept><rtept lat="-29.58352" lon="-51.14385"><ele>0</ele></rtept><rtept lat="-29.58352" lon="-51.14383000000001"><ele>0</ele></rtept><rtept lat="-29.58355" lon="-51.14373"><ele>0</ele></rtept><rtept lat="-29.58356" lon="-51.14365"><ele>0</ele></rtept><rtept lat="-29.58357000000001" lon="-51.14354"><ele>0</ele></rtept><rtept lat="-29.58356" lon="-51.14341000000001"><ele>0</ele></rtept><rtept lat="-29.58349" lon="-51.14309"><ele>0</ele></rtept><rtept lat="-29.58348" lon="-51.14307"><ele>0</ele></rtept><rtept lat="-29.58346" lon="-51.14291"><ele>0</ele></rtept><rtept lat="-29.58345" lon="-51.14284"><ele>0</ele></rtept><rtept lat="-29.58345" lon="-51.14280000000001"><ele>0</ele></rtept><rtept lat="-29.58345" lon="-51.14274"><ele>0</ele></rtept><rtept lat="-29.58346" lon="-51.14269000000001"><ele>0</ele></rtept><rtept lat="-29.58347" lon="-51.14262"><ele>0</ele></rtept><rtept lat="-29.58349" lon="-51.14254"><ele>0</ele></rtept><rtept lat="-29.58352" lon="-51.14244000000001"><ele>0</ele></rtept><rtept lat="-29.58352" lon="-51.14243"><ele>0</ele></rtept><rtept lat="-29.58354" lon="-51.14237"><ele>0</ele></rtept><rtept lat="-29.58357000000001" lon="-51.14229"><ele>0</ele></rtept><rtept lat="-29.58358" lon="-51.14227000000001"><ele>0</ele></rtept><rtept lat="-29.58367" lon="-51.14207"><ele>0</ele></rtept><rtept lat="-29.58384" lon="-51.14173"><ele>0</ele></rtept><rtept lat="-29.58391" lon="-51.14156"><ele>0</ele></rtept><rtept lat="-29.58398" lon="-51.1414"><ele>0</ele></rtept><rtept lat="-29.58399" lon="-51.14138"><ele>0</ele></rtept><rtept lat="-29.58403" lon="-51.14127"><ele>0</ele></rtept><rtept lat="-29.58408" lon="-51.14115"><ele>0</ele></rtept><rtept lat="-29.58421" lon="-51.14077000000001"><ele>0</ele></rtept><rtept lat="-29.58428" lon="-51.14062"><ele>0</ele></rtept><rtept lat="-29.58434" lon="-51.14046"><ele>0</ele></rtept><rtept lat="-29.58435" lon="-51.14045"><ele>0</ele></rtept><rtept lat="-29.58436" lon="-51.14043"><ele>0</ele></rtept><rtept lat="-29.5844" lon="-51.14035999999999"><ele>0</ele></rtept><rtept lat="-29.58445" lon="-51.14029"><ele>0</ele></rtept><rtept lat="-29.58447" lon="-51.14027"><ele>0</ele></rtept><rtept lat="-29.58456" lon="-51.14018"><ele>0</ele></rtept><rtept lat="-29.58458" lon="-51.14016000000001"><ele>0</ele></rtept><rtept lat="-29.5846" lon="-51.14014"><ele>0</ele></rtept><rtept lat="-29.58467" lon="-51.14006"><ele>0</ele></rtept><rtept lat="-29.58473" lon="-51.13999"><ele>0</ele></rtept><rtept lat="-29.58474" lon="-51.13999"><ele>0</ele></rtept><rtept lat="-29.58477" lon="-51.13993"><ele>0</ele></rtept><rtept lat="-29.58479" lon="-51.1399"><ele>0</ele></rtept><rtept lat="-29.58481" lon="-51.13987"><ele>0</ele></rtept><rtept lat="-29.58482" lon="-51.13984"><ele>0</ele></rtept><rtept lat="-29.58482" lon="-51.13982"><ele>0</ele></rtept><rtept lat="-29.58483" lon="-51.13980000000001"><ele>0</ele></rtept><rtept lat="-29.58483" lon="-51.13977"><ele>0</ele></rtept><rtept lat="-29.58483" lon="-51.13962"><ele>0</ele></rtept><rtept lat="-29.58483" lon="-51.13961"><ele>0</ele></rtept><rtept lat="-29.58483" lon="-51.13944000000001"><ele>0</ele></rtept><rtept lat="-29.58483" lon="-51.13943"><ele>0</ele></rtept><rtept lat="-29.58483" lon="-51.1392"><ele>0</ele></rtept><rtept lat="-29.58483" lon="-51.13911"><ele>0</ele></rtept><rtept lat="-29.58484" lon="-51.13899"><ele>0</ele></rtept><rtept lat="-29.58485" lon="-51.13891000000001"><ele>0</ele></rtept><rtept lat="-29.58486" lon="-51.13883000000001"><ele>0</ele></rtept><rtept lat="-29.58487" lon="-51.13866000000001"><ele>0</ele></rtept><rtept lat="-29.58489000000001" lon="-51.13842"><ele>0</ele></rtept><rtept lat="-29.58491" lon="-51.1382"><ele>0</ele></rtept><rtept lat="-29.58494" lon="-51.13793"><ele>0</ele></rtept><rtept lat="-29.58497" lon="-51.13771"><ele>0</ele></rtept><rtept lat="-29.58497" lon="-51.1376"><ele>0</ele></rtept><rtept lat="-29.58497" lon="-51.13759"><ele>0</ele></rtept><rtept lat="-29.58496" lon="-51.13737"><ele>0</ele></rtept><rtept lat="-29.58495" lon="-51.13717"><ele>0</ele></rtept><rtept lat="-29.58495" lon="-51.13703"><ele>0</ele></rtept><rtept lat="-29.58495" lon="-51.13697000000001"><ele>0</ele></rtept><rtept lat="-29.58495" lon="-51.13684"><ele>0</ele></rtept><rtept lat="-29.58494" lon="-51.13679"><ele>0</ele></rtept><rtept lat="-29.58494" lon="-51.13674000000001"><ele>0</ele></rtept><rtept lat="-29.58495" lon="-51.13668"><ele>0</ele></rtept><rtept lat="-29.58497" lon="-51.13662"><ele>0</ele></rtept><rtept lat="-29.58498" lon="-51.13656"><ele>0</ele></rtept><rtept lat="-29.58499" lon="-51.13649000000001"><ele>0</ele></rtept><rtept lat="-29.58499" lon="-51.13638000000001"><ele>0</ele></rtept><rtept lat="-29.58498" lon="-51.13635"><ele>0</ele></rtept><rtept lat="-29.58498" lon="-51.13627000000001"><ele>0</ele></rtept><rtept lat="-29.58495" lon="-51.13617"><ele>0</ele></rtept><rtept lat="-29.58494" lon="-51.13615"><ele>0</ele></rtept><rtept lat="-29.58491" lon="-51.13605"><ele>0</ele></rtept><rtept lat="-29.58475" lon="-51.13575"><ele>0</ele></rtept><rtept lat="-29.58467" lon="-51.13557"><ele>0</ele></rtept><rtept lat="-29.58462" lon="-51.13547000000001"><ele>0</ele></rtept><rtept lat="-29.58456" lon="-51.13531"><ele>0</ele></rtept><rtept lat="-29.58455" lon="-51.13524000000001"><ele>0</ele></rtept><rtept lat="-29.58455" lon="-51.13514"><ele>0</ele></rtept><rtept lat="-29.58453" lon="-51.13495"><ele>0</ele></rtept><rtept lat="-29.58452" lon="-51.13492"><ele>0</ele></rtept><rtept lat="-29.58452" lon="-51.13484"><ele>0</ele></rtept><rtept lat="-29.5845" lon="-51.13471"><ele>0</ele></rtept><rtept lat="-29.58449" lon="-51.13469000000001"><ele>0</ele></rtept><rtept lat="-29.58445" lon="-51.13451"><ele>0</ele></rtept><rtept lat="-29.5844" lon="-51.13433000000001"><ele>0</ele></rtept><rtept lat="-29.5844" lon="-51.13431"><ele>0</ele></rtept><rtept lat="-29.58433" lon="-51.13403"><ele>0</ele></rtept><rtept lat="-29.5843" lon="-51.13392"><ele>0</ele></rtept><rtept lat="-29.58422" lon="-51.13366000000001"><ele>0</ele></rtept><rtept lat="-29.58409" lon="-51.13334"><ele>0</ele></rtept><rtept lat="-29.58394" lon="-51.13296999999999"><ele>0</ele></rtept><rtept lat="-29.58382" lon="-51.13296"><ele>0</ele></rtept><rtept lat="-29.58336" lon="-51.13288000000001"><ele>0</ele></rtept><rtept lat="-29.58323" lon="-51.13286"><ele>0</ele></rtept><rtept lat="-29.58318" lon="-51.13285"><ele>0</ele></rtept><rtept lat="-29.58308" lon="-51.13282999999999"><ele>0</ele></rtept><rtept lat="-29.58301" lon="-51.13282"><ele>0</ele></rtept><rtept lat="-29.58295" lon="-51.13282999999999"><ele>0</ele></rtept><rtept lat="-29.5829" lon="-51.13284"><ele>0</ele></rtept><rtept lat="-29.58283" lon="-51.13287"><ele>0</ele></rtept><rtept lat="-29.58275" lon="-51.1329"><ele>0</ele></rtept><rtept lat="-29.58266" lon="-51.13295"><ele>0</ele></rtept><rtept lat="-29.58265" lon="-51.13296"><ele>0</ele></rtept><rtept lat="-29.58249" lon="-51.13302000000001"><ele>0</ele></rtept><rtept lat="-29.58233" lon="-51.13311"><ele>0</ele></rtept><rtept lat="-29.58222" lon="-51.13317"><ele>0</ele></rtept><rtept lat="-29.58215" lon="-51.13322"><ele>0</ele></rtept><rtept lat="-29.58205999999999" lon="-51.13327"><ele>0</ele></rtept><rtept lat="-29.58202" lon="-51.13331"><ele>0</ele></rtept><rtept lat="-29.582" lon="-51.13332"><ele>0</ele></rtept><rtept lat="-29.58192" lon="-51.13336"><ele>0</ele></rtept><rtept lat="-29.58185" lon="-51.13338000000001"><ele>0</ele></rtept><rtept lat="-29.58184" lon="-51.13339"><ele>0</ele></rtept><rtept lat="-29.58178" lon="-51.1334"><ele>0</ele></rtept><rtept lat="-29.58169" lon="-51.1334"><ele>0</ele></rtept><rtept lat="-29.58167" lon="-51.1334"><ele>0</ele></rtept><rtept lat="-29.58155" lon="-51.13338000000001"><ele>0</ele></rtept><rtept lat="-29.58138" lon="-51.13337"><ele>0</ele></rtept><rtept lat="-29.5812" lon="-51.13337"><ele>0</ele></rtept><rtept lat="-29.58113" lon="-51.13336"><ele>0</ele></rtept><rtept lat="-29.58095" lon="-51.13335"><ele>0</ele></rtept><rtept lat="-29.58044" lon="-51.13332"><ele>0</ele></rtept><rtept lat="-29.58041" lon="-51.13332"><ele>0</ele></rtept><rtept lat="-29.58024" lon="-51.13334"><ele>0</ele></rtept><rtept lat="-29.58015" lon="-51.13336"><ele>0</ele></rtept><rtept lat="-29.58009" lon="-51.13338000000001"><ele>0</ele></rtept><rtept lat="-29.58006" lon="-51.13339"><ele>0</ele></rtept><rtept lat="-29.58004" lon="-51.13341"><ele>0</ele></rtept><rtept lat="-29.58003" lon="-51.13343"><ele>0</ele></rtept><rtept lat="-29.58002" lon="-51.13347"><ele>0</ele></rtept><rtept lat="-29.58" lon="-51.13351"><ele>0</ele></rtept><rtept lat="-29.57999" lon="-51.13355000000001"><ele>0</ele></rtept><rtept lat="-29.57998" lon="-51.13356"><ele>0</ele></rtept><rtept lat="-29.57997" lon="-51.13357"><ele>0</ele></rtept><rtept lat="-29.57996" lon="-51.13357999999999"><ele>0</ele></rtept><rtept lat="-29.57994" lon="-51.1336"><ele>0</ele></rtept><rtept lat="-29.57992" lon="-51.1336"><ele>0</ele></rtept><rtept lat="-29.57991" lon="-51.13360999999999"><ele>0</ele></rtept><rtept lat="-29.57989" lon="-51.13360999999999"><ele>0</ele></rtept><rtept lat="-29.57986" lon="-51.13360999999999"><ele>0</ele></rtept><rtept lat="-29.57983" lon="-51.1336"><ele>0</ele></rtept><rtept lat="-29.57980999999999" lon="-51.13359"><ele>0</ele></rtept><rtept lat="-29.57978" lon="-51.13357999999999"><ele>0</ele></rtept><rtept lat="-29.57974" lon="-51.13356"><ele>0</ele></rtept><rtept lat="-29.57963" lon="-51.13355000000001"><ele>0</ele></rtept><rtept lat="-29.57962" lon="-51.13355000000001"><ele>0</ele></rtept><rtept lat="-29.57945" lon="-51.13354"><ele>0</ele></rtept><rtept lat="-29.57929" lon="-51.13354"><ele>0</ele></rtept><rtept lat="-29.57927" lon="-51.13354"><ele>0</ele></rtept><rtept lat="-29.57915" lon="-51.13354"><ele>0</ele></rtept><rtept lat="-29.57909" lon="-51.13354"><ele>0</ele></rtept><rtept lat="-29.57891" lon="-51.13353"><ele>0</ele></rtept><rtept lat="-29.57879000000001" lon="-51.13353"><ele>0</ele></rtept><rtept lat="-29.57838" lon="-51.13348"><ele>0</ele></rtept><rtept lat="-29.57838" lon="-51.13349000000001"><ele>0</ele></rtept><rtept lat="-29.57837" lon="-51.13349999999999"><ele>0</ele></rtept><rtept lat="-29.57837" lon="-51.13353"><ele>0</ele></rtept><rtept lat="-29.57836" lon="-51.13356"><ele>0</ele></rtept><rtept lat="-29.57834" lon="-51.13359"><ele>0</ele></rtept><rtept lat="-29.57830999999999" lon="-51.13362"><ele>0</ele></rtept><rtept lat="-29.57828" lon="-51.13365"><ele>0</ele></rtept><rtept lat="-29.57822000000001" lon="-51.1337"><ele>0</ele></rtept><rtept lat="-29.57811" lon="-51.13379999999999"><ele>0</ele></rtept><rtept lat="-29.57809" lon="-51.13383"><ele>0</ele></rtept><rtept lat="-29.57806" lon="-51.13387"><ele>0</ele></rtept><rtept lat="-29.57803" lon="-51.13394"><ele>0</ele></rtept><rtept lat="-29.578" lon="-51.13403"><ele>0</ele></rtept><rtept lat="-29.57796" lon="-51.13416000000001"><ele>0</ele></rtept><rtept lat="-29.57793" lon="-51.13427000000001"><ele>0</ele></rtept><rtept lat="-29.57789" lon="-51.13453"><ele>0</ele></rtept><rtept lat="-29.57787" lon="-51.13463999999999"><ele>0</ele></rtept><rtept lat="-29.57786" lon="-51.1347"><ele>0</ele></rtept><rtept lat="-29.57783" lon="-51.13493999999999"><ele>0</ele></rtept><rtept lat="-29.5778" lon="-51.13507"><ele>0</ele></rtept><rtept lat="-29.57779" lon="-51.13515"><ele>0</ele></rtept><rtept lat="-29.57772" lon="-51.13531"><ele>0</ele></rtept><rtept lat="-29.5777" lon="-51.13534"><ele>0</ele></rtept><rtept lat="-29.57767" lon="-51.13538"><ele>0</ele></rtept><rtept lat="-29.57754" lon="-51.13552"><ele>0</ele></rtept><rtept lat="-29.57734" lon="-51.1358"><ele>0</ele></rtept><rtept lat="-29.5773" lon="-51.13587"><ele>0</ele></rtept><rtept lat="-29.57726" lon="-51.13596"><ele>0</ele></rtept><rtept lat="-29.57725" lon="-51.13602999999999"><ele>0</ele></rtept><rtept lat="-29.57724" lon="-51.1361"><ele>0</ele></rtept><rtept lat="-29.57724" lon="-51.13613000000001"><ele>0</ele></rtept><rtept lat="-29.57725" lon="-51.13621999999999"><ele>0</ele></rtept><rtept lat="-29.57727" lon="-51.13631"><ele>0</ele></rtept><rtept lat="-29.57729" lon="-51.13638999999999"><ele>0</ele></rtept><rtept lat="-29.57732" lon="-51.13649000000001"><ele>0</ele></rtept><rtept lat="-29.57737" lon="-51.13658"><ele>0</ele></rtept><rtept lat="-29.57744" lon="-51.13674999999999"><ele>0</ele></rtept><rtept lat="-29.57745" lon="-51.13685"><ele>0</ele></rtept><rtept lat="-29.57745" lon="-51.13698"><ele>0</ele></rtept><rtept lat="-29.57745" lon="-51.13710999999999"><ele>0</ele></rtept><rtept lat="-29.57744" lon="-51.13734"><ele>0</ele></rtept><rtept lat="-29.57743" lon="-51.13741000000001"><ele>0</ele></rtept><rtept lat="-29.57743" lon="-51.13751"><ele>0</ele></rtept><rtept lat="-29.57746" lon="-51.13762"><ele>0</ele></rtept><rtept lat="-29.57746" lon="-51.13766"><ele>0</ele></rtept><rtept lat="-29.57752" lon="-51.13779"><ele>0</ele></rtept><rtept lat="-29.57756" lon="-51.13786"><ele>0</ele></rtept><rtept lat="-29.5776" lon="-51.13792"><ele>0</ele></rtept><rtept lat="-29.57766" lon="-51.13803"><ele>0</ele></rtept><rtept lat="-29.57768" lon="-51.13806"><ele>0</ele></rtept><rtept lat="-29.57776" lon="-51.13818"><ele>0</ele></rtept><rtept lat="-29.57785" lon="-51.13832"><ele>0</ele></rtept><rtept lat="-29.57788" lon="-51.13843"><ele>0</ele></rtept><rtept lat="-29.5779" lon="-51.13868"><ele>0</ele></rtept><rtept lat="-29.57792" lon="-51.13892"><ele>0</ele></rtept><rtept lat="-29.57793" lon="-51.13908000000001"><ele>0</ele></rtept><rtept lat="-29.57794" lon="-51.13913"><ele>0</ele></rtept><rtept lat="-29.57795" lon="-51.13925"><ele>0</ele></rtept><rtept lat="-29.57796" lon="-51.13935"><ele>0</ele></rtept><rtept lat="-29.57794" lon="-51.13947"><ele>0</ele></rtept><rtept lat="-29.57791" lon="-51.13953"><ele>0</ele></rtept><rtept lat="-29.5779" lon="-51.13955000000001"><ele>0</ele></rtept><rtept lat="-29.57785" lon="-51.13962"><ele>0</ele></rtept><rtept lat="-29.5778" lon="-51.13969000000001"><ele>0</ele></rtept><rtept lat="-29.57779" lon="-51.13971"><ele>0</ele></rtept><rtept lat="-29.57772" lon="-51.13977"><ele>0</ele></rtept><rtept lat="-29.57768" lon="-51.13984"><ele>0</ele></rtept><rtept lat="-29.57766" lon="-51.13988"><ele>0</ele></rtept><rtept lat="-29.57761" lon="-51.13999999999999"><ele>0</ele></rtept><rtept lat="-29.57755" lon="-51.14015"><ele>0</ele></rtept><rtept lat="-29.57745" lon="-51.14037"><ele>0</ele></rtept><rtept lat="-29.57729" lon="-51.14065"><ele>0</ele></rtept><rtept lat="-29.5772" lon="-51.14075"><ele>0</ele></rtept><rtept lat="-29.57716" lon="-51.14081"><ele>0</ele></rtept><rtept lat="-29.57712" lon="-51.14085"><ele>0</ele></rtept><rtept lat="-29.57704" lon="-51.14099"><ele>0</ele></rtept><rtept lat="-29.57696" lon="-51.14115"><ele>0</ele></rtept><rtept lat="-29.5769" lon="-51.14130000000001"><ele>0</ele></rtept><rtept lat="-29.5768" lon="-51.14158"><ele>0</ele></rtept><rtept lat="-29.57675" lon="-51.14173"><ele>0</ele></rtept><rtept lat="-29.5767" lon="-51.14184"><ele>0</ele></rtept><rtept lat="-29.57668" lon="-51.1419"><ele>0</ele></rtept><rtept lat="-29.5766" lon="-51.14202"><ele>0</ele></rtept><rtept lat="-29.57656" lon="-51.14209"><ele>0</ele></rtept><rtept lat="-29.57651" lon="-51.1422"><ele>0</ele></rtept><rtept lat="-29.57635" lon="-51.14256"><ele>0</ele></rtept><rtept lat="-29.57619" lon="-51.14296"><ele>0</ele></rtept><rtept lat="-29.57612" lon="-51.14314"><ele>0</ele></rtept><rtept lat="-29.57604" lon="-51.14333000000001"><ele>0</ele></rtept><rtept lat="-29.57601" lon="-51.14344"><ele>0</ele></rtept><rtept lat="-29.57598" lon="-51.1436"><ele>0</ele></rtept><rtept lat="-29.57597" lon="-51.14366"><ele>0</ele></rtept><rtept lat="-29.57595999999999" lon="-51.14371999999999"><ele>0</ele></rtept><rtept lat="-29.57593" lon="-51.14392"><ele>0</ele></rtept><rtept lat="-29.57592" lon="-51.14402999999999"><ele>0</ele></rtept><rtept lat="-29.57592" lon="-51.14407"><ele>0</ele></rtept><rtept lat="-29.57591" lon="-51.14409"><ele>0</ele></rtept><rtept lat="-29.5759" lon="-51.14415"><ele>0</ele></rtept><rtept lat="-29.57586" lon="-51.14424"><ele>0</ele></rtept><rtept lat="-29.57583" lon="-51.1443"><ele>0</ele></rtept><rtept lat="-29.57581" lon="-51.14434"><ele>0</ele></rtept><rtept lat="-29.57575" lon="-51.14441"><ele>0</ele></rtept><rtept lat="-29.57571" lon="-51.14446"><ele>0</ele></rtept><rtept lat="-29.57568" lon="-51.14448"><ele>0</ele></rtept><rtept lat="-29.57562" lon="-51.14453"><ele>0</ele></rtept><rtept lat="-29.57556" lon="-51.14458"><ele>0</ele></rtept><rtept lat="-29.57551" lon="-51.14466"><ele>0</ele></rtept><rtept lat="-29.57547" lon="-51.14473"><ele>0</ele></rtept><rtept lat="-29.57546" lon="-51.14474999999999"><ele>0</ele></rtept><rtept lat="-29.57543" lon="-51.14482"><ele>0</ele></rtept><rtept lat="-29.57541" lon="-51.14491000000001"><ele>0</ele></rtept><rtept lat="-29.57539" lon="-51.14508000000001"><ele>0</ele></rtept><rtept lat="-29.57538" lon="-51.1453"><ele>0</ele></rtept><rtept lat="-29.57538" lon="-51.14537"><ele>0</ele></rtept><rtept lat="-29.57537" lon="-51.14550000000001"><ele>0</ele></rtept><rtept lat="-29.57536" lon="-51.14575000000001"><ele>0</ele></rtept><rtept lat="-29.57536" lon="-51.14587"><ele>0</ele></rtept><rtept lat="-29.57536" lon="-51.1465"><ele>0</ele></rtept><rtept lat="-29.57536" lon="-51.14669"><ele>0</ele></rtept><rtept lat="-29.5753" lon="-51.14767000000001"><ele>0</ele></rtept><rtept lat="-29.57533" lon="-51.14799"><ele>0</ele></rtept><rtept lat="-29.57539" lon="-51.14831"><ele>0</ele></rtept><rtept lat="-29.57539" lon="-51.14835"><ele>0</ele></rtept><rtept lat="-29.57539" lon="-51.14847000000001"><ele>0</ele></rtept><rtept lat="-29.57539" lon="-51.14856"><ele>0</ele></rtept><rtept lat="-29.57539" lon="-51.14864000000001"><ele>0</ele></rtept><rtept lat="-29.57537" lon="-51.14884"><ele>0</ele></rtept><rtept lat="-29.57536" lon="-51.14897"><ele>0</ele></rtept><rtept lat="-29.57534" lon="-51.14913"><ele>0</ele></rtept><rtept lat="-29.57534" lon="-51.14917000000001"><ele>0</ele></rtept><rtept lat="-29.57534" lon="-51.14926"><ele>0</ele></rtept><rtept lat="-29.57536" lon="-51.14939"><ele>0</ele></rtept><rtept lat="-29.57537" lon="-51.14946"><ele>0</ele></rtept><rtept lat="-29.57551" lon="-51.14975"><ele>0</ele></rtept><rtept lat="-29.57567" lon="-51.15012"><ele>0</ele></rtept><rtept lat="-29.57572" lon="-51.15023"><ele>0</ele></rtept><rtept lat="-29.57583" lon="-51.15049"><ele>0</ele></rtept><rtept lat="-29.57587" lon="-51.15059"><ele>0</ele></rtept><rtept lat="-29.57588" lon="-51.15068"><ele>0</ele></rtept><rtept lat="-29.57588" lon="-51.15069"><ele>0</ele></rtept><rtept lat="-29.57589" lon="-51.15076"><ele>0</ele></rtept><rtept lat="-29.5759" lon="-51.1509"><ele>0</ele></rtept><rtept lat="-29.5759" lon="-51.15093"><ele>0</ele></rtept><rtept lat="-29.5759" lon="-51.15116"><ele>0</ele></rtept><rtept lat="-29.57589" lon="-51.15149"><ele>0</ele></rtept><rtept lat="-29.57591" lon="-51.15161"><ele>0</ele></rtept><rtept lat="-29.57593" lon="-51.15200000000001"><ele>0</ele></rtept><rtept lat="-29.57597" lon="-51.15238"><ele>0</ele></rtept><rtept lat="-29.57598" lon="-51.15246"><ele>0</ele></rtept><rtept lat="-29.57601" lon="-51.15271"><ele>0</ele></rtept><rtept lat="-29.57605" lon="-51.15289000000001"><ele>0</ele></rtept><rtept lat="-29.57608" lon="-51.15303000000001"><ele>0</ele></rtept><rtept lat="-29.57614" lon="-51.15318"><ele>0</ele></rtept><rtept lat="-29.57619" lon="-51.15329"><ele>0</ele></rtept><rtept lat="-29.57627" lon="-51.15338"><ele>0</ele></rtept><rtept lat="-29.57691" lon="-51.15407"><ele>0</ele></rtept><rtept lat="-29.57701" lon="-51.15416"><ele>0</ele></rtept><rtept lat="-29.57707" lon="-51.15421"><ele>0</ele></rtept><rtept lat="-29.57734" lon="-51.15446"><ele>0</ele></rtept><rtept lat="-29.57758" lon="-51.15466"><ele>0</ele></rtept><rtept lat="-29.57764" lon="-51.15471"><ele>0</ele></rtept><rtept lat="-29.57765" lon="-51.15472"><ele>0</ele></rtept><rtept lat="-29.57773" lon="-51.15477"><ele>0</ele></rtept><rtept lat="-29.5778" lon="-51.15482"><ele>0</ele></rtept><rtept lat="-29.57793" lon="-51.15491"><ele>0</ele></rtept><rtept lat="-29.57817" lon="-51.15500999999999"><ele>0</ele></rtept><rtept lat="-29.57839" lon="-51.1551"><ele>0</ele></rtept><rtept lat="-29.57847" lon="-51.15511"><ele>0</ele></rtept><rtept lat="-29.57857" lon="-51.15511999999999"><ele>0</ele></rtept><rtept lat="-29.57859" lon="-51.15511999999999"><ele>0</ele></rtept><rtept lat="-29.57865" lon="-51.15511999999999"><ele>0</ele></rtept><rtept lat="-29.57871" lon="-51.15511"><ele>0</ele></rtept><rtept lat="-29.57881" lon="-51.15511"><ele>0</ele></rtept><rtept lat="-29.57885" lon="-51.15511999999999"><ele>0</ele></rtept><rtept lat="-29.5789" lon="-51.15513"><ele>0</ele></rtept><rtept lat="-29.57898" lon="-51.15517000000001"><ele>0</ele></rtept><rtept lat="-29.57899" lon="-51.15518"><ele>0</ele></rtept><rtept lat="-29.57905999999999" lon="-51.15523"><ele>0</ele></rtept><rtept lat="-29.57915" lon="-51.15528"><ele>0</ele></rtept><rtept lat="-29.57922" lon="-51.15532"><ele>0</ele></rtept><rtept lat="-29.57932" lon="-51.15536999999999"><ele>0</ele></rtept><rtept lat="-29.57941" lon="-51.15542000000001"><ele>0</ele></rtept><rtept lat="-29.57948" lon="-51.15546"><ele>0</ele></rtept><rtept lat="-29.57949" lon="-51.15547"><ele>0</ele></rtept><rtept lat="-29.57957" lon="-51.15551"><ele>0</ele></rtept><rtept lat="-29.57964" lon="-51.15554"><ele>0</ele></rtept><rtept lat="-29.57980999999999" lon="-51.15563"><ele>0</ele></rtept><rtept lat="-29.57998" lon="-51.1557"><ele>0</ele></rtept><rtept lat="-29.58033" lon="-51.15583"><ele>0</ele></rtept><rtept lat="-29.58049" lon="-51.15589"><ele>0</ele></rtept><rtept lat="-29.58061" lon="-51.15593"><ele>0</ele></rtept><rtept lat="-29.58081" lon="-51.15597000000001"><ele>0</ele></rtept><rtept lat="-29.58084" lon="-51.15597999999999"><ele>0</ele></rtept><rtept lat="-29.58102" lon="-51.156"><ele>0</ele></rtept><rtept lat="-29.58112" lon="-51.156"><ele>0</ele></rtept><rtept lat="-29.5812" lon="-51.15601"><ele>0</ele></rtept><rtept lat="-29.58125" lon="-51.15602"><ele>0</ele></rtept><rtept lat="-29.58147" lon="-51.15602"><ele>0</ele></rtept><rtept lat="-29.58166" lon="-51.15599"><ele>0</ele></rtept><rtept lat="-29.58183" lon="-51.15594"><ele>0</ele></rtept><rtept lat="-29.58187" lon="-51.156"><ele>0</ele></rtept><rtept lat="-29.58189" lon="-51.15605"><ele>0</ele></rtept><rtept lat="-29.58191" lon="-51.15614999999999"><ele>0</ele></rtept><rtept lat="-29.58193" lon="-51.15622999999999"><ele>0</ele></rtept><rtept lat="-29.58194" lon="-51.15639999999999"><ele>0</ele></rtept><rtept lat="-29.58196" lon="-51.15661"><ele>0</ele></rtept><rtept lat="-29.582" lon="-51.15685"><ele>0</ele></rtept><rtept lat="-29.58201" lon="-51.15698"><ele>0</ele></rtept><rtept lat="-29.58203" lon="-51.15715"><ele>0</ele></rtept><rtept lat="-29.58204" lon="-51.15736999999999"><ele>0</ele></rtept><rtept lat="-29.58204" lon="-51.15745"><ele>0</ele></rtept><rtept lat="-29.58202" lon="-51.15761"><ele>0</ele></rtept><rtept lat="-29.582" lon="-51.15783"><ele>0</ele></rtept><rtept lat="-29.582" lon="-51.15788"><ele>0</ele></rtept><rtept lat="-29.58202" lon="-51.15792"><ele>0</ele></rtept><rtept lat="-29.58208" lon="-51.15804"><ele>0</ele></rtept><rtept lat="-29.58205999999999" lon="-51.15805"><ele>0</ele></rtept><rtept lat="-29.58208" lon="-51.15804"><ele>0</ele></rtept><rtept lat="-29.58212" lon="-51.15803"><ele>0</ele></rtept><rtept lat="-29.58221" lon="-51.15800999999999"><ele>0</ele></rtept><rtept lat="-29.58235" lon="-51.158"><ele>0</ele></rtept><rtept lat="-29.58246" lon="-51.15800999999999"><ele>0</ele></rtept><rtept lat="-29.58258" lon="-51.15804"><ele>0</ele></rtept><rtept lat="-29.58263" lon="-51.15774"><ele>0</ele></rtept></rte><wpt lat="-29.58270550968713" lon="-51.15753093241482"><ele>0</ele><name>Início/Fim</name></wpt></gpx>
